{
  "norad_id": 65989,
  "name": "SDA_1679",
  "history": [
    {
      "epoch": "2026-04-11T18:03:20.417760Z",
      "apogee_km": 948.4623766413806,
      "perigee_km": 943.5625206602335,
      "latitude_deg": 3.4392606148580426e-06,
      "longitude_deg": 162.41432801742124,
      "height_km": 947.0258926839887,
      "semi_major_axis_km": 7324.149448650807,
      "eccentricity": 0.0003345,
      "inclination_deg": 81.2995,
      "raan_deg": 273.2167,
      "arg_perigee_deg": 40.9885,
      "mean_anomaly_deg": 319.1523,
      "mean_motion_rev_day": 13.85054829
    },
    {
      "epoch": "2026-04-13T04:43:48.854208Z",
      "apogee_km": 948.4195756647123,
      "perigee_km": 943.6046800280656,
      "latitude_deg": -4.985528286025411e-05,
      "longitude_deg": -0.46859988653389734,
      "height_km": 946.9784058213188,
      "semi_major_axis_km": 7324.149127846388,
      "eccentricity": 0.0003287,
      "inclination_deg": 81.2997,
      "raan_deg": 271.8763,
      "arg_perigee_deg": 38.0121,
      "mean_anomaly_deg": 322.1267,
      "mean_motion_rev_day": 13.8505492
    },
    {
      "epoch": "2026-04-14T20:36:21.481344Z",
      "apogee_km": 948.3469163055861,
      "perigee_km": 943.6741101921334,
      "latitude_deg": -4.273058139196014e-05,
      "longitude_deg": 118.2162185359983,
      "height_km": 946.9434104717541,
      "semi_major_axis_km": 7324.1475132488595,
      "eccentricity": 0.000319,
      "inclination_deg": 81.2995,
      "raan_deg": 270.3347,
      "arg_perigee_deg": 34.2804,
      "mean_anomaly_deg": 325.8558,
      "mean_motion_rev_day": 13.85055378
    },
    {
      "epoch": "2026-04-15T19:08:39.990048Z",
      "apogee_km": 948.3179191851796,
      "perigee_km": 943.7080991694047,
      "latitude_deg": -6.399775767886895e-05,
      "longitude_deg": 138.34217524618523,
      "height_km": 946.9260376194785,
      "semi_major_axis_km": 7324.150009177292,
      "eccentricity": 0.0003147,
      "inclination_deg": 81.2997,
      "raan_deg": 269.4634,
      "arg_perigee_deg": 32.1892,
      "mean_anomaly_deg": 327.9456,
      "mean_motion_rev_day": 13.8505467
    },
    {
      "epoch": "2026-04-16T12:28:54.088608Z",
      "apogee_km": 948.298017595308,
      "perigee_km": 943.7189618351376,
      "latitude_deg": 7.932485973693268e-05,
      "longitude_deg": -123.09876108839015,
      "height_km": 946.9028035564762,
      "semi_major_axis_km": 7324.1454897152225,
      "eccentricity": 0.0003126,
      "inclination_deg": 81.2997,
      "raan_deg": 268.7932,
      "arg_perigee_deg": 30.6604,
      "mean_anomaly_deg": 329.4736,
      "mean_motion_rev_day": 13.85055952
    },
    {
      "epoch": "2026-04-17T21:25:21.088416Z",
      "apogee_km": 948.2672689193096,
      "perigee_km": 943.7526647289587,
      "latitude_deg": 3.659805826390213e-05,
      "longitude_deg": 100.16230319567475,
      "height_km": 946.8685812367947,
      "semi_major_axis_km": 7324.146966824133,
      "eccentricity": 0.0003082,
      "inclination_deg": 81.2999,
      "raan_deg": 267.5196,
      "arg_perigee_deg": 27.3224,
      "mean_anomaly_deg": 332.8095,
      "mean_motion_rev_day": 13.85055533
    },
    {
      "epoch": "2026-04-18T16:29:36.686688Z",
      "apogee_km": 948.1800904122138,
      "perigee_km": 943.8398009322082,
      "latitude_deg": -8.165889463445508e-06,
      "longitude_deg": 172.5766855802393,
      "height_km": 946.9321854385781,
      "semi_major_axis_km": 7324.146945672211,
      "eccentricity": 0.0002963,
      "inclination_deg": 81.3,
      "raan_deg": 266.7822,
      "arg_perigee_deg": 26.5067,
      "mean_anomaly_deg": 333.6241,
      "mean_motion_rev_day": 13.85055539
    },
    {
      "epoch": "2026-04-19T20:13:59.391264Z",
      "apogee_km": 948.1617789774718,
      "perigee_km": 943.856645833821,
      "latitude_deg": 6.734019463901078e-05,
      "longitude_deg": 114.2709670700498,
      "height_km": 946.901038720215,
      "semi_major_axis_km": 7324.146212405646,
      "eccentricity": 0.0002939,
      "inclination_deg": 81.3004,
      "raan_deg": 265.7103,
      "arg_perigee_deg": 23.5904,
      "mean_anomaly_deg": 336.5388,
      "mean_motion_rev_day": 13.85055747
    },
    {
      "epoch": "2026-04-20T10:06:10.695168Z",
      "apogee_km": 948.1422520481528,
      "perigee_km": 943.8718366216635,
      "latitude_deg": 3.043850260502048e-05,
      "longitude_deg": -94.88185199371806,
      "height_km": 946.8919767748938,
      "semi_major_axis_km": 7324.144044334908,
      "eccentricity": 0.00029153,
      "inclination_deg": 81.3005,
      "raan_deg": 265.1742,
      "arg_perigee_deg": 22.001,
      "mean_anomaly_deg": 338.1272,
      "mean_motion_rev_day": 13.85056362
    },
    {
      "epoch": "2026-04-21T17:18:51.355008Z",
      "apogee_km": 948.5852375913637,
      "perigee_km": 944.2901070035277,
      "latitude_deg": -2.96700458619907e-05,
      "longitude_deg": 154.46081737324712,
      "height_km": 947.2727885065019,
      "semi_major_axis_km": 7324.574672297445,
      "eccentricity": 0.0002932,
      "inclination_deg": 81.3004,
      "raan_deg": 263.9681,
      "arg_perigee_deg": 19.0806,
      "mean_anomaly_deg": 341.046,
      "mean_motion_rev_day": 13.84934218
    },
    {
      "epoch": "2026-04-22T19:19:22.239264Z",
      "apogee_km": 948.4709689749998,
      "perigee_km": 944.4002644975217,
      "latitude_deg": -3.997817984127296e-05,
      "longitude_deg": 122.25919433523488,
      "height_km": 947.4333563921267,
      "semi_major_axis_km": 7324.57261673626,
      "eccentricity": 0.00027788,
      "inclination_deg": 81.3007,
      "raan_deg": 262.9633,
      "arg_perigee_deg": 23.4849,
      "mean_anomaly_deg": 336.6434,
      "mean_motion_rev_day": 13.84934801
    },
    {
      "epoch": "2026-04-24T19:52:28.462080Z",
      "apogee_km": 948.9028151498342,
      "perigee_km": 944.5474521251735,
      "latitude_deg": -3.15580074579451e-05,
      "longitude_deg": 110.11151558010597,
      "height_km": 947.4354353460477,
      "semi_major_axis_km": 7324.862133637504,
      "eccentricity": 0.0002973,
      "inclination_deg": 81.3012,
      "raan_deg": 261.0855,
      "arg_perigee_deg": 8.2547,
      "mean_anomaly_deg": 351.8658,
      "mean_motion_rev_day": 13.84852692
    },
    {
      "epoch": "2026-04-25T20:09:01.095264Z",
      "apogee_km": 948.8030500754166,
      "perigee_km": 944.6439942709276,
      "latitude_deg": 1.3776667678422463e-05,
      "longitude_deg": 104.04188181224622,
      "height_km": 947.5182105513157,
      "semi_major_axis_km": 7324.860522173172,
      "eccentricity": 0.0002839,
      "inclination_deg": 81.3011,
      "raan_deg": 260.1488,
      "arg_perigee_deg": 5.1906,
      "mean_anomaly_deg": 354.928,
      "mean_motion_rev_day": 13.84853149
    },
    {
      "epoch": "2026-04-26T22:09:36.102528Z",
      "apogee_km": 948.7292629303201,
      "perigee_km": 944.7225629169507,
      "latitude_deg": -4.859422636685167e-05,
      "longitude_deg": 71.82332780446565,
      "height_km": 947.5914042590277,
      "semi_major_axis_km": 7324.862912923635,
      "eccentricity": 0.0002735,
      "inclination_deg": 81.3013,
      "raan_deg": 259.1443,
      "arg_perigee_deg": 3.1164,
      "mean_anomaly_deg": 357.0009,
      "mean_motion_rev_day": 13.84852471
    },
    {
      "epoch": "2026-04-27T18:58:04.022976Z",
      "apogee_km": 948.6756045565699,
      "perigee_km": 944.7714538944938,
      "latitude_deg": 4.8515840186449214e-05,
      "longitude_deg": 118.04846391588534,
      "height_km": 947.637609152625,
      "semi_major_axis_km": 7324.8605292255315,
      "eccentricity": 0.0002665,
      "inclination_deg": 81.3013,
      "raan_deg": 258.3403,
      "arg_perigee_deg": 0.5717,
      "mean_anomaly_deg": 359.5443,
      "mean_motion_rev_day": 13.84853147
    },
    {
      "epoch": "2026-04-28T19:14:36.631968Z",
      "apogee_km": 948.6325383943104,
      "perigee_km": 944.8133564177333,
      "latitude_deg": -1.6334849210286275e-05,
      "longitude_deg": 111.97771539769514,
      "height_km": 947.681549078208,
      "semi_major_axis_km": 7324.859947406022,
      "eccentricity": 0.0002607,
      "inclination_deg": 81.3016,
      "raan_deg": 257.4024,
      "arg_perigee_deg": 357.4452,
      "mean_anomaly_deg": 2.6691,
      "mean_motion_rev_day": 13.84853312
    },
    {
      "epoch": "2026-04-29T19:31:09.257376Z",
      "apogee_km": 948.5999609765004,
      "perigee_km": 944.846702542507,
      "latitude_deg": -8.071291547121448e-06,
      "longitude_deg": 105.906909027366,
      "height_km": 947.7220099639013,
      "semi_major_axis_km": 7324.860331759503,
      "eccentricity": 0.0002562,
      "inclination_deg": 81.3018,
      "raan_deg": 256.4645,
      "arg_perigee_deg": 354.4463,
      "mean_anomaly_deg": 5.6665,
      "mean_motion_rev_day": 13.84853203
    },
    {
      "epoch": "2026-04-30T14:35:34.823616Z",
      "apogee_km": 948.570413172044,
      "perigee_km": 944.8729710014532,
      "latitude_deg": -6.166904923271631e-05,
      "longitude_deg": 178.2802427994898,
      "height_km": 947.7582094830134,
      "semi_major_axis_km": 7324.858692086748,
      "eccentricity": 0.00025239,
      "inclination_deg": 81.3019,
      "raan_deg": 255.7277,
      "arg_perigee_deg": 351.873,
      "mean_anomaly_deg": 8.2385,
      "mean_motion_rev_day": 13.84853668
    },
    {
      "epoch": "2026-05-02T09:56:33.023040Z",
      "apogee_km": 948.4627851754904,
      "perigee_km": 944.9790827420993,
      "latitude_deg": 6.302691418873466e-05,
      "longitude_deg": -115.41753897275686,
      "height_km": 947.8966235820754,
      "semi_major_axis_km": 7324.857933958794,
      "eccentricity": 0.0002378,
      "inclination_deg": 81.3019,
      "raan_deg": 254.0527,
      "arg_perigee_deg": 346.1616,
      "mean_anomaly_deg": 13.9476,
      "mean_motion_rev_day": 13.84853883
    }
  ]
}